{"type": "FeatureCollection", "features": [ {"type": "Feature", "properties": {"norad_id": 60453, "name": "LEGION 4", "group": "resource", "lat": -23.419279905338087, "lon": 26.06322488824045, "alt_km": 514.9470248634325, "timestamp": "2025-12-10T21:43:21.744487+00:00", "meta": {"OBJECT_NAME": "LEGION 4", "OBJECT_ID": "2024-146B", "EPOCH": "2025-12-10T13:57:51.478848", "MEAN_MOTION": 15.1578813, "ECCENTRICITY": 0.00096762, "INCLINATION": 45.0385, "RA_OF_ASC_NODE": 53.445, "ARG_OF_PERICENTER": 300.037, "MEAN_ANOMALY": 59.9549, "EPHEMERIS_TYPE": 0, "CLASSIFICATION_TYPE": "U", "NORAD_CAT_ID": 60453, "ELEMENT_SET_NO": 999, "REV_AT_EPOCH": 7225, "BSTAR": 0.00043040967, "MEAN_MOTION_DOT": 8.11e-05, "MEAN_MOTION_DDOT": 0}, "tle": {"line1": "1 60453U 24146B   25344.58184582  .00008110  00000+0  43041-3 0  9998", "line2": "2 60453  45.0385  53.4450 0009676 300.0370  59.9549 15.15788130 72253"}}, "geometry": {"type": "Point", "coordinates": [26.06322488824045, -23.419279905338087]}}, {"type": "Feature", "properties": {"norad_id": 60989, "name": "SENTINEL-2C", "group": "resource", "lat": -77.69331887911022, "lon": 101.13137170122197, "alt_km": 797.1859931775789, "timestamp": "2025-12-10T21:43:21.744497+00:00", "meta": {"OBJECT_NAME": "SENTINEL-2C", "OBJECT_ID": "2024-157A", "EPOCH": "2025-12-10T15:23:17.522592", "MEAN_MOTION": 14.30816364, "ECCENTRICITY": 0.00012079, "INCLINATION": 98.5684, "RA_OF_ASC_NODE": 57.154, "ARG_OF_PERICENTER": 97.9818, "MEAN_ANOMALY": 262.1502, "EPHEMERIS_TYPE": 0, "CLASSIFICATION_TYPE": "U", "NORAD_CAT_ID": 60989, "ELEMENT_SET_NO": 999, "REV_AT_EPOCH": 6602, "BSTAR": 0.000111802, "MEAN_MOTION_DOT": 2.49e-06, "MEAN_MOTION_DDOT": 0}, "tle": {"line1": "1 60989U 24157A   25344.64117503  .00000249  00000+0  11180-3 0  9994", "line2": "2 60989  98.5684  57.1540 0001207  97.9818 262.1502 14.30816364 66026"}}, "geometry": {"type": "Point", "coordinates": [101.13137170122197, -77.69331887911022]}}, {"type": "Feature", "properties": {"norad_id": 61735, "name": "IONOSFERA-M 1", "group": "resource", "lat": -57.65606909141215, "lon": 20.70599742257069, "alt_km": 823.8780421285737, "timestamp": "2025-12-10T21:43:21.744507+00:00", "meta": {"OBJECT_NAME": "IONOSFERA-M 1", "OBJECT_ID": "2024-199A", "EPOCH": "2025-12-10T15:32:26.260224", "MEAN_MOTION": 14.22713322, "ECCENTRICITY": 0.00010606, "INCLINATION": 98.7411, "RA_OF_ASC_NODE": 214.5118, "ARG_OF_PERICENTER": 24.855, "MEAN_ANOMALY": 335.2679, "EPHEMERIS_TYPE": 0, "CLASSIFICATION_TYPE": "U", "NORAD_CAT_ID": 61735, "ELEMENT_SET_NO": 999, "REV_AT_EPOCH": 10089, "BSTAR": 7.1642745e-05, "MEAN_MOTION_DOT": 1.16e-06, "MEAN_MOTION_DDOT": 0}, "tle": {"line1": "1 61735U 24199A   25344.64752616  .00000116  00000+0  71643-4 0  9994", "line2": "2 61735  98.7411 214.5118 0001060  24.8550 335.2679 14.22713322100897"}}, "geometry": {"type": "Point", "coordinates": [20.70599742257069, -57.65606909141215]}}, {"type": "Feature", "properties": {"norad_id": 61736, "name": "IONOSFERA-M 2", "group": "resource", "lat": 60.06853820900669, "lon": -160.8176771530053, "alt_km": 809.6066018318443, "timestamp": "2025-12-10T21:43:21.744518+00:00", "meta": {"OBJECT_NAME": "IONOSFERA-M 2", "OBJECT_ID": "2024-199B", "EPOCH": "2025-12-10T14:41:03.610176", "MEAN_MOTION": 14.22715517, "ECCENTRICITY": 0.00015919, "INCLINATION": 98.7403, "RA_OF_ASC_NODE": 214.3889, "ARG_OF_PERICENTER": 113.4835, "MEAN_ANOMALY": 246.651, "EPHEMERIS_TYPE": 0, "CLASSIFICATION_TYPE": "U", "NORAD_CAT_ID": 61736, "ELEMENT_SET_NO": 999, "REV_AT_EPOCH": 10401, "BSTAR": 7.2068942e-05, "MEAN_MOTION_DOT": 1.17e-06, "MEAN_MOTION_DDOT": 0}, "tle": {"line1": "1 61736U 24199B   25344.61184734  .00000117  00000+0  72069-4 0  9996", "line2": "2 61736  98.7403 214.3889 0001591 113.4835 246.6510 14.22715517104017"}}, "geometry": {"type": "Point", "coordinates": [-160.8176771530053, 60.06853820900669]}}, {"type": "Feature", "properties": {"norad_id": 63772, "name": "BIOMASS", "group": "resource", "lat": -41.52900438692166, "lon": 177.16004980496544, "alt_km": 675.9125298610888, "timestamp": "2025-12-10T21:43:21.744528+00:00", "meta": {"OBJECT_NAME": "BIOMASS", "OBJECT_ID": "2025-090A", "EPOCH": "2025-12-10T12:05:44.472480", "MEAN_MOTION": 14.67538798, "ECCENTRICITY": 0.00012001, "INCLINATION": 98.07, "RA_OF_ASC_NODE": 169.5464, "ARG_OF_PERICENTER": 76.9658, "MEAN_ANOMALY": 283.1681, "EPHEMERIS_TYPE": 0, "CLASSIFICATION_TYPE": "U", "NORAD_CAT_ID": 63772, "ELEMENT_SET_NO": 999, "REV_AT_EPOCH": 3301, "BSTAR": 0.00039747987, "MEAN_MOTION_DOT": 2.207e-05, "MEAN_MOTION_DDOT": 0}, "tle": {"line1": "1 63772U 25090A   25344.50398695  .00002207  00000+0  39748-3 0  9998", "line2": "2 63772  98.0700 169.5464 0001200  76.9658 283.1681 14.67538798 33014"}}, "geometry": {"type": "Point", "coordinates": [177.16004980496544, -41.52900438692166]}}, {"type": "Feature", "properties": {"norad_id": 64694, "name": "GOSAT-GW (IBUKI GW)", "group": "resource", "lat": 12.32712138761258, "lon": 102.22161537393441, "alt_km": 670.0443961622477, "timestamp": "2025-12-10T21:43:21.744538+00:00", "meta": {"OBJECT_NAME": "GOSAT-GW (IBUKI GW)", "OBJECT_ID": "2025-141A", "EPOCH": "2025-12-10T16:03:11.957760", "MEAN_MOTION": 14.67563399, "ECCENTRICITY": 0.0001479, "INCLINATION": 98.0424, "RA_OF_ASC_NODE": 280.2191, "ARG_OF_PERICENTER": 82.0451, "MEAN_ANOMALY": 278.0922, "EPHEMERIS_TYPE": 0, "CLASSIFICATION_TYPE": "U", "NORAD_CAT_ID": 64694, "ELEMENT_SET_NO": 999, "REV_AT_EPOCH": 2419, "BSTAR": 0.00041037, "MEAN_MOTION_DOT": 2.281e-05, "MEAN_MOTION_DDOT": 0}, "tle": {"line1": "1 64694U 25141A   25344.66888840  .00002281  00000+0  41037-3 0  9998", "line2": "2 64694  98.0424 280.2191 0001479  82.0451 278.0922 14.67563399 24191"}}, "geometry": {"type": "Point", "coordinates": [102.22161537393441, 12.32712138761258]}}, {"type": "Feature", "properties": {"norad_id": 64876, "name": "IONOSFERA-M 3", "group": "resource", "lat": 64.52000715644584, "lon": 145.28856557126187, "alt_km": 813.1418429433479, "timestamp": "2025-12-10T21:43:21.744548+00:00", "meta": {"OBJECT_NAME": "IONOSFERA-M 3", "OBJECT_ID": "2025-155A", "EPOCH": "2025-12-10T14:25:50.775168", "MEAN_MOTION": 14.21440186, "ECCENTRICITY": 0.00022827, "INCLINATION": 98.5779, "RA_OF_ASC_NODE": 306.528, "ARG_OF_PERICENTER": 63.3798, "MEAN_ANOMALY": 296.7613, "EPHEMERIS_TYPE": 0, "CLASSIFICATION_TYPE": "U", "NORAD_CAT_ID": 64876, "ELEMENT_SET_NO": 999, "REV_AT_EPOCH": 1961, "BSTAR": 9.0472726e-05, "MEAN_MOTION_DOT": 1.55e-06, "MEAN_MOTION_DDOT": 0}, "tle": {"line1": "1 64876U 25155A   25344.60128212  .00000155  00000+0  90473-4 0  9996", "line2": "2 64876  98.5779 306.5280 0002282  63.3798 296.7613 14.21440186 19614"}}, "geometry": {"type": "Point", "coordinates": [145.28856557126187, 64.52000715644584]}}, {"type": "Feature", "properties": {"norad_id": 64877, "name": "IONOSFERA-M 4", "group": "resource", "lat": -64.03467831800987, "lon": -35.201447736409875, "alt_km": 828.4203986327884, "timestamp": "2025-12-10T21:43:21.744559+00:00", "meta": {"OBJECT_NAME": "IONOSFERA-M 4", "OBJECT_ID": "2025-155B", "EPOCH": "2025-12-10T15:16:20.619264", "MEAN_MOTION": 14.21441316, "ECCENTRICITY": 0.00016358, "INCLINATION": 98.5779, "RA_OF_ASC_NODE": 306.4816, "ARG_OF_PERICENTER": 65.4804, "MEAN_ANOMALY": 294.6544, "EPHEMERIS_TYPE": 0, "CLASSIFICATION_TYPE": "U", "NORAD_CAT_ID": 64877, "ELEMENT_SET_NO": 999, "REV_AT_EPOCH": 1961, "BSTAR": 9.7183218e-05, "MEAN_MOTION_DOT": 1.7e-06, "MEAN_MOTION_DDOT": 0}, "tle": {"line1": "1 64877U 25155B   25344.63634976  .00000170  00000+0  97183-4 0  9991", "line2": "2 64877  98.5779 306.4816 0001635  65.4804 294.6544 14.21441316 19617"}}, "geometry": {"type": "Point", "coordinates": [-35.201447736409875, -64.03467831800987]}}, {"type": "Feature", "properties": {"norad_id": 64899, "name": "MICROCARB", "group": "resource", "lat": 63.418280643621095, "lon": -103.39049219443847, "alt_km": 638.5322396345182, "timestamp": "2025-12-10T21:43:21.744569+00:00", "meta": {"OBJECT_NAME": "MICROCARB", "OBJECT_ID": "2025-156A", "EPOCH": "2025-12-10T11:24:43.686432", "MEAN_MOTION": 14.72051398, "ECCENTRICITY": 0.00169939, "INCLINATION": 98.0027, "RA_OF_ASC_NODE": 59.8573, "ARG_OF_PERICENTER": 151.6728, "MEAN_ANOMALY": 208.5407, "EPHEMERIS_TYPE": 0, "CLASSIFICATION_TYPE": "U", "NORAD_CAT_ID": 64899, "ELEMENT_SET_NO": 999, "REV_AT_EPOCH": 2020, "BSTAR": 0.00019897453, "MEAN_MOTION_DOT": 1.203e-05, "MEAN_MOTION_DDOT": 0}, "tle": {"line1": "1 64899U 25156A   25344.47550563  .00001203  00000+0  19897-3 0  9990", "line2": "2 64899  98.0027  59.8573 0016993 151.6728 208.5407 14.72051398 20209"}}, "geometry": {"type": "Point", "coordinates": [-103.39049219443847, 63.418280643621095]}}, {"type": "Feature", "properties": {"norad_id": 64900, "name": "CO3D 3", "group": "resource", "lat": -19.550932406004442, "lon": -121.35899585406929, "alt_km": 510.5745919162173, "timestamp": "2025-12-10T21:43:21.744579+00:00", "meta": {"OBJECT_NAME": "CO3D 3", "OBJECT_ID": "2025-156B", "EPOCH": "2025-12-10T14:31:42.844800", "MEAN_MOTION": 15.20212255, "ECCENTRICITY": 0.00013169, "INCLINATION": 97.4339, "RA_OF_ASC_NODE": 61.0032, "ARG_OF_PERICENTER": 100.0149, "MEAN_ANOMALY": 260.1234, "EPHEMERIS_TYPE": 0, "CLASSIFICATION_TYPE": "U", "NORAD_CAT_ID": 64900, "ELEMENT_SET_NO": 999, "REV_AT_EPOCH": 2088, "BSTAR": 0.00072414327, "MEAN_MOTION_DOT": 0.00015646, "MEAN_MOTION_DDOT": 0}, "tle": {"line1": "1 64900U 25156B   25344.60535700  .00015646  00000+0  72414-3 0  9994", "line2": "2 64900  97.4339  61.0032 0001316 100.0149 260.1234 15.20212255 20885"}}, "geometry": {"type": "Point", "coordinates": [-121.35899585406929, -19.550932406004442]}}]}